NORAD_CAT_ID,OBJECT_NAME,OBJECT_TYPE,EPOCH,MEAN_MOTION,ECCENTRICITY,INCLINATION,RA_OF_ASC_NODE,ARG_OF_PERICENTER,MEAN_ANOMALY,BSTAR,MEAN_MOTION_DOT,MEAN_MOTION_DDOT,TLE_LINE0,TLE_LINE1,TLE_LINE2,SEMIMAJOR_AXIS,PERIOD,APOGEE,PERIGEE,DECAYED
53833.0,STARLINK-4771,PAYLOAD,2023-06-14 22:11:02,15.08835472,0.0001314,53.2162,107.6184,87.7632,272.351,5.0259e-07,-2.8e-06,0.0,0 STARLINK-4771,1 53833U 22114R   23165.92433426 -.00000280  00000-0  50259-6 0  9990,2 53833  53.2162 107.6184 0001314  87.7632 272.3510 15.08835472 41516,6917.894,95.438,540.668,538.85,0.0
53833.0,STARLINK-4771,PAYLOAD,2023-06-15 06:07:57,15.08839683,0.0001331,53.2168,106.1301,94.6357,265.4787,2.6816e-05,1.39e-06,0.0,0 STARLINK-4771,1 53833U 22114R   23166.25553102  .00000139  00000-0  26816-4 0  9993,2 53833  53.2168 106.1301 0001331  94.6357 265.4787 15.08839683 42100,6917.881,95.438,540.667,538.826,0.0
53833.0,STARLINK-4771,PAYLOAD,2023-06-16 02:47:58,15.08847585,0.0001262,53.217,102.2651,86.8033,273.3104,0.00010892,1.446e-05,0.0,0 STARLINK-4771,1 53833U 22114R   23167.11664480  .00001446  00000-0  10892-3 0  9999,2 53833  53.2170 102.2651 0001262  86.8033 273.3104 15.08847585 41699,6917.857,95.437,540.595,538.849,0.0
53833.0,STARLINK-4771,PAYLOAD,2023-06-16 12:20:16,15.08846384,0.0001229,53.2167,100.4819,87.4474,272.6659,6.6551e-05,7.72e-06,0.0,0 STARLINK-4771,1 53833U 22114R   23167.51408519  .00000772  00000-0  66551-4 0  9997,2 53833  53.2167 100.4819 0001229  87.4474 272.6659 15.08846384 42290,6917.861,95.437,540.576,538.876,0.0
53833.0,STARLINK-4771,PAYLOAD,2023-06-16 18:41:49,15.08840507,0.0001348,53.2159,99.294,91.7945,268.3202,8.3519e-05,1.042e-05,0.0,0 STARLINK-4771,1 53833U 22114R   23167.77904853  .00001042  00000-0  83519-4 0  9991,2 53833  53.2159  99.2940 0001348  91.7945 268.3202 15.08840507 42336,6917.879,95.438,540.676,538.811,0.0
53833.0,STARLINK-4771,PAYLOAD,2023-06-17 02:38:45,15.08842328,0.0001017,53.2163,97.8071,97.6333,262.4775,2.5079e-05,1.11e-06,0.0,0 STARLINK-4771,1 53833U 22114R   23168.11024797  .00000111  00000-0  25079-4 0  9993,2 53833  53.2163  97.8071 0001017  97.6333 262.4775 15.08842328 41847,6917.873,95.437,540.442,539.035,0.0
53833.0,STARLINK-4771,PAYLOAD,2023-06-17 12:11:04,15.08834841,0.0001062,53.2158,96.0235,101.4468,258.6643,2.1216e-05,5e-07,0.0,0 STARLINK-4771,1 53833U 22114R   23168.50769282  .00000050  00000-0  21216-4 0  9992,2 53833  53.2158  96.0235 0001062 101.4468 258.6643 15.08834841 42446,6917.896,95.438,540.496,539.026,0.0
53833.0,STARLINK-4771,PAYLOAD,2023-06-17 18:32:37,15.0883034,0.0001201,53.2172,94.8359,90.3503,269.7626,-5.4711e-06,-3.75e-06,0.0,0 STARLINK-4771,1 53833U 22114R   23168.77265895 -.00000375  00000-0 -54711-5 0  9991,2 53833  53.2172  94.8359 0001201  90.3503 269.7626 15.08830340 41944,6917.91,95.438,540.606,538.944,0.0
53833.0,STARLINK-4771,PAYLOAD,2023-06-17 23:18:47,15.08824398,0.0001098,53.216,93.942,101.5072,258.6044,-0.00011718,-2.151e-05,0.0,0 STARLINK-4771,1 53833U 22114R   23168.97138709 -.00002151  00000-0 -11718-3 0  9998,2 53833  53.2160  93.9420 0001098 101.5072 258.6044 15.08824398 41970,6917.928,95.439,540.553,539.033,0.0
53833.0,STARLINK-4771,PAYLOAD,2023-06-18 04:04:57,15.08832142,0.0001483,53.2174,93.0472,87.0809,273.0353,-0.00011102,-2.054e-05,0.0,0 STARLINK-4771,1 53833U 22114R   23169.17010492 -.00002054  00000-0 -11102-3 0  9998,2 53833  53.2174  93.0472 0001483  87.0809 273.0353 15.08832142 42002,6917.904,95.438,540.795,538.743,0.0
53833.0,STARLINK-4771,PAYLOAD,2023-06-18 12:01:52,15.08838514,0.0001187,53.2166,91.5618,100.2101,259.9025,-4.4002e-05,-9.88e-06,0.0,0 STARLINK-4771,1 53833U 22114R   23169.50129824 -.00000988  00000-0 -44002-4 0  9995,2 53833  53.2166  91.5618 0001187 100.2101 259.9025 15.08838514 42594,6917.885,95.438,540.571,538.929,0.0
53833.0,STARLINK-4771,PAYLOAD,2023-06-19 00:44:56,15.0884196,0.0001075,53.2162,89.1835,100.7084,259.403,7.6441e-05,9.29e-06,0.0,0 STARLINK-4771,1 53833U 22114R   23170.03121233  .00000929  00000-0  76441-4 0  9996,2 53833  53.2162  89.1835 0001075 100.7084 259.4030 15.08841960 42135,6917.874,95.437,540.483,538.996,0.0
53833.0,STARLINK-4771,PAYLOAD,2023-06-19 11:52:39,15.08835611,0.000147,53.2175,87.1021,88.0291,272.0869,5.3275e-05,5.6e-06,0.0,0 STARLINK-4771,1 53833U 22114R   23170.49489891  .00000560  00000-0  53275-4 0  9994,2 53833  53.2175  87.1021 0001470  88.0291 272.0869 15.08835611 42206,6917.894,95.438,540.776,538.742,0.0
53833.0,STARLINK-4771,PAYLOAD,2023-06-20 03:46:30,15.08839708,0.0001302,53.2182,84.1229,115.4766,244.6361,8.4637e-05,1.059e-05,0.0,0 STARLINK-4771,1 53833U 22114R   23171.15729523  .00001059  00000-0  84637-4 0  9997,2 53833  53.2182  84.1229 0001302 115.4766 244.6361 15.08839708 42840,6917.881,95.438,540.647,538.846,0.0
53833.0,STARLINK-4771,PAYLOAD,2023-06-20 18:04:58,15.0883838,0.0001032,53.2172,81.4478,107.5286,252.5819,7.5857e-06,-1.67e-06,0.0,0 STARLINK-4771,1 53833U 22114R   23171.75345918 -.00000167  00000-0  75857-5 0  9990,2 53833  53.2172  81.4478 0001032 107.5286 252.5819 15.08838380 42395,6917.885,95.438,540.464,539.036,0.0
53833.0,STARLINK-4771,PAYLOAD,2023-06-20 21:15:45,15.08840506,0.0001241,53.2166,80.8563,97.1442,262.9691,5.7887e-06,-1.96e-06,0.0,0 STARLINK-4771,1 53833U 22114R   23171.88593890 -.00000196  00000-0  57887-5 0  9993,2 53833  53.2166  80.8563 0001241  97.1442 262.9691 15.08840506 42954,6917.879,95.438,540.602,538.885,0.0
53833.0,STARLINK-4771,PAYLOAD,2023-06-21 00:26:31,15.08848071,0.000127,53.2177,80.2613,99.3612,260.7524,-1.7527e-05,-5.67e-06,0.0,0 STARLINK-4771,1 53833U 22114R   23172.01841473 -.00000567  00000-0 -17527-4 0  9991,2 53833  53.2177  80.2613 0001270  99.3612 260.7524 15.08848071 42430,6917.856,95.437,540.599,538.842,0.0
53833.0,STARLINK-4771,PAYLOAD,2023-06-22 00:17:18,15.08828149,0.0001291,53.2178,75.801,94.8265,265.2875,0.0001786,2.555e-05,0.0,0 STARLINK-4771,1 53833U 22114R   23173.01201884  .00002555  00000-0  17860-3 0  9994,2 53833  53.2178  75.8010 0001291  94.8265 265.2875 15.08828149 42588,6917.917,95.438,540.675,538.889,0.0
53833.0,STARLINK-4771,PAYLOAD,2023-06-22 03:28:04,15.08844834,0.0001197,53.2176,75.2052,95.0258,265.0871,9.9117e-06,-1.3e-06,0.0,0 STARLINK-4771,1 53833U 22114R   23173.14449484 -.00000130  00000-0  99117-5 0  9993,2 53833  53.2176  75.2052 0001197  95.0258 265.0871 15.08844834 42602,6917.866,95.437,540.559,538.903,0.0
53833.0,STARLINK-4771,PAYLOAD,2023-06-22 17:46:33,15.08838523,0.0001142,53.2177,72.5272,94.7504,265.3618,-3.491e-05,-8.43e-06,0.0,0 STARLINK-4771,1 53833U 22114R   23173.74066132 -.00000843  00000-0 -34910-4 0  9995,2 53833  53.2177  72.5272 0001142  94.7504 265.3618 15.08838523 42696,6917.885,95.438,540.54,538.96,0.0
53833.0,STARLINK-4771,PAYLOAD,2023-06-24 01:34:15,15.08847272,0.0001061,53.2173,66.5836,87.6786,272.4327,4.4201e-05,4.16e-06,0.0,0 STARLINK-4771,1 53833U 22114R   23175.06545422  .00000416  00000-0  44201-4 0  9994,2 53833  53.2173  66.5836 0001061  87.6786 272.4327 15.08847272 42893,6917.858,95.437,540.457,538.989,0.0
53833.0,STARLINK-4771,PAYLOAD,2023-06-24 09:31:11,15.08841863,0.0001119,53.2176,65.0971,97.8464,262.2655,3.6393e-05,2.91e-06,0.0,0 STARLINK-4771,1 53833U 22114R   23175.39665792  .00000291  00000-0  36393-4 0  9997,2 53833  53.2176  65.0971 0001119  97.8464 262.2655 15.08841863 42947,6917.875,95.437,540.514,538.966,0.0
53833.0,STARLINK-4771,PAYLOAD,2023-06-26 01:15:50,15.08841323,0.0001249,53.218,57.66,89.7872,270.3263,2.0259e-05,3.5e-07,0.0,0 STARLINK-4771,1 53833U 22114R   23177.05266208  .00000035  00000-0  20259-4 0  9991,2 53833  53.2180  57.6600 0001249  89.7872 270.3263 15.08841323 43199,6917.876,95.437,540.605,538.877,0.0
53833.0,STARLINK-4771,PAYLOAD,2023-06-26 09:12:46,15.08832271,0.0001186,53.2176,56.1773,94.7048,265.408,0.00011161,1.489e-05,0.0,0 STARLINK-4771,1 53833U 22114R   23177.38386601  .00001489  00000-0  11161-3 0  9992,2 53833  53.2176  56.1773 0001186  94.7048 265.4080 15.08832271 43240,6917.904,95.438,540.589,538.949,0.0
53833.0,STARLINK-4771,PAYLOAD,2023-06-27 20:11:14,15.08839857,0.0001072,53.217,49.6336,84.1267,275.9847,8.4225e-05,1.053e-05,0.0,0 STARLINK-4771,1 53833U 22114R   23178.84114231  .00001053  00000-0  84225-4 0  9991,2 53833  53.2170  49.6336 0001072  84.1267 275.9847 15.08839857 43464,6917.881,95.438,540.487,539.004,0.0
53833.0,STARLINK-4771,PAYLOAD,2023-06-27 21:46:38,15.0882407,0.0001083,53.217,49.3362,90.6508,269.4608,0.00032011,4.808e-05,0.0,0 STARLINK-4771,1 53833U 22114R   23178.90738717  .00004808  00000-0  32011-3 0  9995,2 53833  53.2170  49.3362 0001083  90.6508 269.4608 15.08824070 43477,6917.929,95.439,540.543,539.045,0.0
53833.0,STARLINK-4771,PAYLOAD,2023-06-28 23:12:48,15.08838903,0.0001103,53.2174,44.5781,81.6041,278.5076,7.2354e-06,-1.73e-06,0.0,0 STARLINK-4771,1 53833U 22114R   23179.96722739 -.00000173  00000-0  72354-5 0  9997,2 53833  53.2174  44.5781 0001103  81.6041 278.5076 15.08838903 43636,6917.884,95.438,540.512,538.986,0.0
53833.0,STARLINK-4771,PAYLOAD,2023-07-01 00:29:45,15.08841146,0.0001115,53.2179,35.3591,82.2154,277.8965,1.643e-07,-2.85e-06,0.0,0 STARLINK-4771,1 53833U 22114R   23182.02066713 -.00000285  00000-0  16430-6 0  9999,2 53833  53.2179  35.3591 0001115  82.2154 277.8965 15.08841146 43949,6917.877,95.437,540.513,538.971,0.0
53833.0,STARLINK-4771,PAYLOAD,2023-07-01 17:59:00,15.08834901,0.0001025,53.2173,32.0882,84.0197,276.0912,-3.7542e-05,-8.85e-06,0.0,0 STARLINK-4771,1 53833U 22114R   23182.74931432 -.00000885  00000-0 -37542-4 0  9999,2 53833  53.2173  32.0882 0001025  84.0197 276.0912 15.08834901 44054,6917.896,95.438,540.47,539.052,0.0
53833.0,STARLINK-4771,PAYLOAD,2023-07-03 00:11:19,15.08842925,9.68e-05,53.2175,26.4385,88.7722,271.3381,4.6197e-05,4.48e-06,0.0,0 STARLINK-4771,1 53833U 22114R   23184.00786834  .00000448  00000-0  46197-4 0  9993,2 53833  53.2175  26.4385 0000968  88.7722 271.3381 15.08842925 44245,6917.871,95.437,540.406,539.067,0.0
